IXPE                    
1 49954U 21121A   24076.25001157  .00004006  00000+0  27156-3 0  9991
2 49954   0.2317   2.3597 0009477 339.4304 198.0260 14.96856248123943
